[{"OBJECT_NAME":"JY1SAT (JO-97)","OBJECT_ID":"2018-099AX","EPOCH":"2026-03-09T16:28:19.890048","MEAN_MOTION":15.30302629,"ECCENTRICITY":0.00047232,"INCLINATION":97.4249,"RA_OF_ASC_NODE":131.3625,"ARG_OF_PERICENTER":256.6795,"MEAN_ANOMALY":103.3919,"EPHEMERIS_TYPE":0,"CLASSIFICATION_TYPE":"U","NORAD_CAT_ID":43803,"ELEMENT_SET_NO":999,"REV_AT_EPOCH":39839,"BSTAR":0.00060804308,"MEAN_MOTION_DOT":0.00017774,"MEAN_MOTION_DDOT":0},{"OBJECT_NAME":"STARLINK-34486","OBJECT_ID":"2025-137D","EPOCH":"2026-03-09T23:30:47.140992","MEAN_MOTION":15.30200925,"ECCENTRICITY":0.00014257,"INCLINATION":53.1606,"RA_OF_ASC_NODE":334.2903,"ARG_OF_PERICENTER":124.0727,"MEAN_ANOMALY":236.0409,"EPHEMERIS_TYPE":0,"CLASSIFICATION_TYPE":"U","NORAD_CAT_ID":64597,"ELEMENT_SET_NO":999,"REV_AT_EPOCH":4077,"BSTAR":0.00058700101,"MEAN_MOTION_DOT":0.00017067,"MEAN_MOTION_DDOT":0}]
